388P/Gibbs,e,23.8589,37.0529,42.4117,5.248267,0.0819748,0.61800056,22.0843,04/18.0/2020,2000,g 13.0,4.0
# From MPC118845
389P/Siding Spring,e,160.0679,218.8443,249.2987,5.629972,0.0737810,0.70456672,8.1692,04/18.0/2020,2000,g 16.0,4.0
# From MPEC 2020-C98
390P/Gibbs,e,18.5591,152.2807,232.3371,5.797538,0.0706055,0.70680970,1.8903,04/18.0/2020,2000,g 12.0,4.0
# From MPEC 2020-AA5
391P/Kowalski,e,21.2760,124.7325,186.5898,4.675020,0.0975054,0.12080600,74.2781,04/18.0/2020,2000,g  8.0,4.0
# From MPEC 2020-C98
392P/LINEAR,e,4.9294,24.8878,71.9956,6.150299,0.0646189,0.68290376,1.1085,04/18.0/2020,2000,g 14.5,4.0
# From MPC118845
393P/Spacewatch-Hill,e,16.7970,36.4211,327.9772,4.782579,0.0942347,0.12001867,16.7277,04/18.0/2020,2000,g 11.0,4.0
# From MPC107687
1I/`Oumuamua,h,09/09.4886/2017,122.6778,24.5997,241.6845,1.199252,0.255240,2000,23.0,2.0
# From MPEC 2020-C98
2I/Borisov,h,12/08.5547/2019,44.0527,308.1482,209.1252,3.356773,2.006564,2000,11.0,4.0
